STARLINK-30450          
1 57913U 23147A   23295.58334491 -.02116736  00000+0 -73634-1 0  9991
2 57913  43.0003  22.5205 0000953 276.6298 199.5559 15.32415751  5686
STARLINK-30483          
1 57914U 23147B   23295.58334491 -.02121031  00000+0 -72733-1 0  9995
2 57914  43.0003  22.5047 0001269 278.3048 204.3217 15.32871962  5680
STARLINK-30454          
1 57915U 23147C   23295.58334491 -.02118103  00000+0 -71584-1 0  9995
2 57915  43.0002  22.4899 0001315 289.1130 199.7939 15.33323505  5682
STARLINK-30491          
1 57916U 23147D   23295.58334491 -.02087912  00000+0 -54473-1 0  9997
2 57916  42.9998  22.2978 0001057 280.3601 288.2017 15.41752950  5781
STARLINK-30501          
1 57917U 23147E   23295.58334491 -.02115740  00000+0 -70478-1 0  9992
2 57917  43.0002  22.4753 0001022 293.6880 201.3372 15.33774592  5799
STARLINK-30499          
1 57918U 23147F   23295.58334491 -.02120533  00000+0 -69628-1 0  9994
2 57918  43.0003  22.4602 0001171 284.0649 216.9139 15.34230731  5792
STARLINK-30496          
1 57919U 23147G   23295.58334491 -.02117328  00000+0 -68513-1 0  9995
2 57919  43.0002  22.4477 0001084 289.4891 217.2813 15.34681724  5787
STARLINK-30485          
1 57920U 23147H   23295.58334491 -.02117437  00000+0 -67524-1 0  9999
2 57920  43.0002  22.4327 0001059 291.1001 221.2982 15.35135057  5784
STARLINK-30492          
1 57921U 23147J   23295.58334491 -.02118058  00000+0 -66565-1 0  9994
2 57921  43.0001  22.4198 0000968 284.8134 233.0513 15.35588549  5682
STARLINK-30440          
1 57923U 23147L   23295.58334491 -.02119022  00000+0 -64667-1 0  9999
2 57923  43.0000  22.3956 0000960 288.3665 239.9389 15.36495558  5790
STARLINK-30487          
1 57924U 23147M   23295.58334491 -.02120846  00000+0 -59199-1 0  9990
2 57924  43.0001  22.3292 0000944 279.8585 275.8582 15.39214740  5792
STARLINK-30452          
1 57925U 23147N   23295.58334491 -.02119400  00000+0 -63730-1 0  9991
2 57925  43.0000  22.3834 0001058 287.9626 245.3177 15.36948641  5734
STARLINK-30468          
1 57926U 23147P   23295.58334491 -.02119539  00000+0 -62798-1 0  9998
2 57926  43.0001  22.3713 0001054 283.0257 255.0680 15.37401496  5735
STARLINK-30459          
1 57927U 23147Q   23295.58334491 -.02121521  00000+0 -61933-1 0  9993
2 57927  42.9999  22.3608 0001077 281.4330 261.3103 15.37855890  5687
