[
  {
    "OBJECT_NAME": "STARLINK-30450",
    "OBJECT_ID": "2023-147A",
    "EPOCH": "2023-10-22T14:00:01.000224",
    "MEAN_MOTION": 15.32415751,
    "ECCENTRICITY": 9.53e-5,
    "INCLINATION": 43.0003,
    "RA_OF_ASC_NODE": 22.5205,
    "ARG_OF_PERICENTER": 276.6298,
    "MEAN_ANOMALY": 199.5559,
    "EPHEMERIS_TYPE": 0,
    "CLASSIFICATION_TYPE": "U",
    "NORAD_CAT_ID": 57913,
    "ELEMENT_SET_NO": 999,
    "REV_AT_EPOCH": 568,
    "BSTAR": -0.073634,
    "MEAN_MOTION_DOT": -0.02116736,
    "MEAN_MOTION_DDOT": 0
  },
  {
    "OBJECT_NAME": "STARLINK-30483",
    "OBJECT_ID": "2023-147B",
    "EPOCH": "2023-10-22T14:00:01.000224",
    "MEAN_MOTION": 15.32871962,
    "ECCENTRICITY": 0.0001269,
    "INCLINATION": 43.0003,
    "RA_OF_ASC_NODE": 22.5047,
    "ARG_OF_PERICENTER": 278.3048,
    "MEAN_ANOMALY": 204.3217,
    "EPHEMERIS_TYPE": 0,
    "CLASSIFICATION_TYPE": "U",
    "NORAD_CAT_ID": 57914,
    "ELEMENT_SET_NO": 999,
    "REV_AT_EPOCH": 568,
    "BSTAR": -0.072733,
    "MEAN_MOTION_DOT": -0.02121031,
    "MEAN_MOTION_DDOT": 0
  },
  {
    "OBJECT_NAME": "STARLINK-30454",
    "OBJECT_ID": "2023-147C",
    "EPOCH": "2023-10-22T14:00:01.000224",
    "MEAN_MOTION": 15.33323505,
    "ECCENTRICITY": 0.0001315,
    "INCLINATION": 43.0002,
    "RA_OF_ASC_NODE": 22.4899,
    "ARG_OF_PERICENTER": 289.113,
    "MEAN_ANOMALY": 199.7939,
    "EPHEMERIS_TYPE": 0,
    "CLASSIFICATION_TYPE": "U",
    "NORAD_CAT_ID": 57915,
    "ELEMENT_SET_NO": 999,
    "REV_AT_EPOCH": 568,
    "BSTAR": -0.071584,
    "MEAN_MOTION_DOT": -0.02118103,
    "MEAN_MOTION_DDOT": 0
  },
  {
    "OBJECT_NAME": "STARLINK-30491",
    "OBJECT_ID": "2023-147D",
    "EPOCH": "2023-10-22T14:00:01.000224",
    "MEAN_MOTION": 15.4175295,
    "ECCENTRICITY": 0.0001057,
    "INCLINATION": 42.9998,
    "RA_OF_ASC_NODE": 22.2978,
    "ARG_OF_PERICENTER": 280.3601,
    "MEAN_ANOMALY": 288.2017,
    "EPHEMERIS_TYPE": 0,
    "CLASSIFICATION_TYPE": "U",
    "NORAD_CAT_ID": 57916,
    "ELEMENT_SET_NO": 999,
    "REV_AT_EPOCH": 578,
    "BSTAR": -0.054473,
    "MEAN_MOTION_DOT": -0.02087912,
    "MEAN_MOTION_DDOT": 0
  },
  {
    "OBJECT_NAME": "STARLINK-30501",
    "OBJECT_ID": "2023-147E",
    "EPOCH": "2023-10-22T14:00:01.000224",
    "MEAN_MOTION": 15.33774592,
    "ECCENTRICITY": 0.0001022,
    "INCLINATION": 43.0002,
    "RA_OF_ASC_NODE": 22.4753,
    "ARG_OF_PERICENTER": 293.688,
    "MEAN_ANOMALY": 201.3372,
    "EPHEMERIS_TYPE": 0,
    "CLASSIFICATION_TYPE": "U",
    "NORAD_CAT_ID": 57917,
    "ELEMENT_SET_NO": 999,
    "REV_AT_EPOCH": 579,
    "BSTAR": -0.070478,
    "MEAN_MOTION_DOT": -0.0211574,
    "MEAN_MOTION_DDOT": 0
  },
  {
    "OBJECT_NAME": "STARLINK-30499",
    "OBJECT_ID": "2023-147F",
    "EPOCH": "2023-10-22T14:00:01.000224",
    "MEAN_MOTION": 15.34230731,
    "ECCENTRICITY": 0.0001171,
    "INCLINATION": 43.0003,
    "RA_OF_ASC_NODE": 22.4602,
    "ARG_OF_PERICENTER": 284.0649,
    "MEAN_ANOMALY": 216.9139,
    "EPHEMERIS_TYPE": 0,
    "CLASSIFICATION_TYPE": "U",
    "NORAD_CAT_ID": 57918,
    "ELEMENT_SET_NO": 999,
    "REV_AT_EPOCH": 579,
    "BSTAR": -0.069628,
    "MEAN_MOTION_DOT": -0.02120533,
    "MEAN_MOTION_DDOT": 0
  },
  {
    "OBJECT_NAME": "STARLINK-30496",
    "OBJECT_ID": "2023-147G",
    "EPOCH": "2023-10-22T14:00:01.000224",
    "MEAN_MOTION": 15.34681724,
    "ECCENTRICITY": 0.0001084,
    "INCLINATION": 43.0002,
    "RA_OF_ASC_NODE": 22.4477,
    "ARG_OF_PERICENTER": 289.4891,
    "MEAN_ANOMALY": 217.2813,
    "EPHEMERIS_TYPE": 0,
    "CLASSIFICATION_TYPE": "U",
    "NORAD_CAT_ID": 57919,
    "ELEMENT_SET_NO": 999,
    "REV_AT_EPOCH": 578,
    "BSTAR": -0.068513,
    "MEAN_MOTION_DOT": -0.02117328,
    "MEAN_MOTION_DDOT": 0
  },
  {
    "OBJECT_NAME": "STARLINK-30485",
    "OBJECT_ID": "2023-147H",
    "EPOCH": "2023-10-22T14:00:01.000224",
    "MEAN_MOTION": 15.35135057,
    "ECCENTRICITY": 0.0001059,
    "INCLINATION": 43.0002,
    "RA_OF_ASC_NODE": 22.4327,
    "ARG_OF_PERICENTER": 291.1001,
    "MEAN_ANOMALY": 221.2982,
    "EPHEMERIS_TYPE": 0,
    "CLASSIFICATION_TYPE": "U",
    "NORAD_CAT_ID": 57920,
    "ELEMENT_SET_NO": 999,
    "REV_AT_EPOCH": 578,
    "BSTAR": -0.067524,
    "MEAN_MOTION_DOT": -0.02117437,
    "MEAN_MOTION_DDOT": 0
  },
  {
    "OBJECT_NAME": "STARLINK-30492",
    "OBJECT_ID": "2023-147J",
    "EPOCH": "2023-10-22T14:00:01.000224",
    "MEAN_MOTION": 15.35588549,
    "ECCENTRICITY": 9.68e-5,
    "INCLINATION": 43.0001,
    "RA_OF_ASC_NODE": 22.4198,
    "ARG_OF_PERICENTER": 284.8134,
    "MEAN_ANOMALY": 233.0513,
    "EPHEMERIS_TYPE": 0,
    "CLASSIFICATION_TYPE": "U",
    "NORAD_CAT_ID": 57921,
    "ELEMENT_SET_NO": 999,
    "REV_AT_EPOCH": 568,
    "BSTAR": -0.066565,
    "MEAN_MOTION_DOT": -0.02118058,
    "MEAN_MOTION_DDOT": 0
  },
  {
    "OBJECT_NAME": "STARLINK-30440",
    "OBJECT_ID": "2023-147L",
    "EPOCH": "2023-10-22T14:00:01.000224",
    "MEAN_MOTION": 15.36495558,
    "ECCENTRICITY": 9.6e-5,
    "INCLINATION": 43,
    "RA_OF_ASC_NODE": 22.3956,
    "ARG_OF_PERICENTER": 288.3665,
    "MEAN_ANOMALY": 239.9389,
    "EPHEMERIS_TYPE": 0,
    "CLASSIFICATION_TYPE": "U",
    "NORAD_CAT_ID": 57923,
    "ELEMENT_SET_NO": 999,
    "REV_AT_EPOCH": 579,
    "BSTAR": -0.064667,
    "MEAN_MOTION_DOT": -0.02119022,
    "MEAN_MOTION_DDOT": 0
  },
  {
    "OBJECT_NAME": "STARLINK-30487",
    "OBJECT_ID": "2023-147M",
    "EPOCH": "2023-10-22T14:00:01.000224",
    "MEAN_MOTION": 15.3921474,
    "ECCENTRICITY": 9.44e-5,
    "INCLINATION": 43.0001,
    "RA_OF_ASC_NODE": 22.3292,
    "ARG_OF_PERICENTER": 279.8585,
    "MEAN_ANOMALY": 275.8582,
    "EPHEMERIS_TYPE": 0,
    "CLASSIFICATION_TYPE": "U",
    "NORAD_CAT_ID": 57924,
    "ELEMENT_SET_NO": 999,
    "REV_AT_EPOCH": 579,
    "BSTAR": -0.059199,
    "MEAN_MOTION_DOT": -0.02120846,
    "MEAN_MOTION_DDOT": 0
  },
  {
    "OBJECT_NAME": "STARLINK-30452",
    "OBJECT_ID": "2023-147N",
    "EPOCH": "2023-10-22T14:00:01.000224",
    "MEAN_MOTION": 15.36948641,
    "ECCENTRICITY": 0.0001058,
    "INCLINATION": 43,
    "RA_OF_ASC_NODE": 22.3834,
    "ARG_OF_PERICENTER": 287.9626,
    "MEAN_ANOMALY": 245.3177,
    "EPHEMERIS_TYPE": 0,
    "CLASSIFICATION_TYPE": "U",
    "NORAD_CAT_ID": 57925,
    "ELEMENT_SET_NO": 999,
    "REV_AT_EPOCH": 573,
    "BSTAR": -0.06373,
    "MEAN_MOTION_DOT": -0.021194,
    "MEAN_MOTION_DDOT": 0
  },
  {
    "OBJECT_NAME": "STARLINK-30468",
    "OBJECT_ID": "2023-147P",
    "EPOCH": "2023-10-22T14:00:01.000224",
    "MEAN_MOTION": 15.37401496,
    "ECCENTRICITY": 0.0001054,
    "INCLINATION": 43.0001,
    "RA_OF_ASC_NODE": 22.3713,
    "ARG_OF_PERICENTER": 283.0257,
    "MEAN_ANOMALY": 255.068,
    "EPHEMERIS_TYPE": 0,
    "CLASSIFICATION_TYPE": "U",
    "NORAD_CAT_ID": 57926,
    "ELEMENT_SET_NO": 999,
    "REV_AT_EPOCH": 573,
    "BSTAR": -0.062798,
    "MEAN_MOTION_DOT": -0.02119539,
    "MEAN_MOTION_DDOT": 0
  },
  {
    "OBJECT_NAME": "STARLINK-30459",
    "OBJECT_ID": "2023-147Q",
    "EPOCH": "2023-10-22T14:00:01.000224",
    "MEAN_MOTION": 15.3785589,
    "ECCENTRICITY": 0.0001077,
    "INCLINATION": 42.9999,
    "RA_OF_ASC_NODE": 22.3608,
    "ARG_OF_PERICENTER": 281.433,
    "MEAN_ANOMALY": 261.3103,
    "EPHEMERIS_TYPE": 0,
    "CLASSIFICATION_TYPE": "U",
    "NORAD_CAT_ID": 57927,
    "ELEMENT_SET_NO": 999,
    "REV_AT_EPOCH": 568,
    "BSTAR": -0.061933,
    "MEAN_MOTION_DOT": -0.02121521,
    "MEAN_MOTION_DDOT": 0
  }
]
